181P/Shoemaker-Levy,e,17.4797,35.4297,336.2973,3.878511,0.1290347,0.70006689,135.8016,11/26.0/2024,2000,g 11.5,4.0
# From MPEC 2024-UQ8
182P/LONEOS,e,16.2323,72.4633,54.1922,2.949073,0.1946148,0.66378600,180.6824,11/26.0/2024,2000,g 18.0,4.0
# From MPEC 2024-VJ2
183P/Korlevic-Juric,e,18.7547,3.7019,163.5292,4.699876,0.0967330,0.10257975,260.1291,11/26.0/2024,2000,g 12.5,2.0
# From MPEC 2020-W26
184P/Lovas,e,4.5714,173.2732,186.5655,3.799999,0.1330543,0.55010926,198.5361,11/26.0/2024,2000,g 13.5,4.0
# From MPEC 2024-F91
185P/Petriew,e,14.0133,214.1181,181.9119,3.099203,0.1806463,0.69959053,90.7080,11/26.0/2024,2000,g 15.0,4.0
# From MPEC 2022-X67
186P/Garradd,e,28.6329,325.9987,268.7866,4.852975,0.0921917,0.12410017,199.8826,11/26.0/2024,2000,g  7.5,4.0
# From MPEC 2020-SI8
187P/LINEAR,e,13.6604,109.8414,131.3315,4.555279,0.1013752,0.15515084,241.9888,11/26.0/2024,2000,g  9.0,4.0
# From MPEC 2023-J29
188P/LINEAR-Mueller,e,10.5239,358.9238,26.7983,4.366467,0.1080211,0.41684701,305.6480,11/26.0/2024,2000,g 11.5,4.0
# From MPEC 2022-QD9
189P/NEAT,e,20.1082,281.6749,16.2137,2.941533,0.1953636,0.58977231,160.2053,11/26.0/2024,2000,g 19.0,4.0
# From MPEC 2024-VJ2
190P/Mueller,e,2.1747,335.5003,50.5228,4.227061,0.1134087,0.52224185,356.8099,11/26.0/2024,2000,g 13.0,4.0
# From MPEC 2024-TD8
191P/McNaught,e,8.8393,98.1821,284.2648,3.640171,0.1419127,0.38542215,191.0904,11/26.0/2024,2000,g 13.0,4.0
# From MPEC 2024-VJ2
192P/Shoemaker-Levy,e,24.5865,51.6086,313.0806,6.465252,0.0599551,0.77351871,11.1190,11/26.0/2024,2000,g 15.0,4.0
# From MPEC 2024-R10
193P/LINEAR-NEAT,e,10.6812,335.1881,8.1330,3.578882,0.1455738,0.39284151,173.1756,11/26.0/2024,2000,g 14.0,4.0
# From MPEC 2024-GJ3
194P/LINEAR,e,11.8047,349.5221,128.5841,4.121314,0.1178014,0.56332026,34.8379,11/26.0/2024,2000,g 16.0,4.0
# From MPEC 2024-VJ2
195P/Hill,e,36.4220,243.1098,250.4612,6.455110,0.0600964,0.31198018,344.8864,11/26.0/2024,2000,g  8.5,4.0
# From MPEC 2024-GJ3
196P/Tichy,e,19.2989,24.1199,12.1173,3.805418,0.1327702,0.42777174,100.7278,11/26.0/2024,2000,g 13.5,4.0
# From MPEC 2023-UR6
197P/LINEAR,e,25.5671,66.2453,189.7576,2.898468,0.1997337,0.62390354,143.6197,11/26.0/2024,2000,g 16.5,2.0
# From MPEC 2024-VJ2
198P/ODAS,e,1.3399,358.4703,69.0306,3.592383,0.1447538,0.44464362,314.3909,11/26.0/2024,2000,g 12.5,4.0
# From MPEC 2024-Q20
199P/Shoemaker,e,24.9387,92.3472,191.7722,5.876003,0.0691960,0.50464358,32.9717,11/26.0/2024,2000,g 10.0,4.0
# From MPEC 2022-C56
200P/Larsen,e,12.0964,234.8045,134.3907,4.951697,0.0894485,0.33159274,174.1004,11/26.0/2024,2000,g  9.0,4.0
# From MPC 93588
201P/LONEOS,e,5.7386,41.5347,19.7841,3.354689,0.1604079,0.63759724,205.0590,11/26.0/2024,2000,g 14.0,4.0
# From MPEC 2023-XP6
202P/Scotti,e,2.1417,177.3019,274.4897,4.100067,0.1187183,0.25130786,22.8754,11/26.0/2024,2000,g 13.5,4.0
# From MPEC 2021-S45
203P/Korlevic,e,2.9751,290.2388,154.8838,4.668400,0.0977129,0.31639571,168.5681,11/26.0/2024,2000,g 14.5,2.0
# From MPEC 2024-JU4
204P/LINEAR-NEAT,e,6.5973,108.4762,356.7073,3.583814,0.1452733,0.48825521,107.4849,11/26.0/2024,2000,g 14.0,4.0
# From MPEC 2023_O39
205P/Giacobini,e,15.3025,179.6188,154.1737,3.542888,0.1477978,0.56732565,154.8900,11/26.0/2024,2000,g 13.0,4.0
# From MPC 75725
206P/Barnard-Boattini,e,33.6266,202.3489,189.5682,3.491174,0.1510939,0.55131003,205.7712,11/26.0/2024,2000,g 19.0,4.0
# From MPEC 2024-NE4
207P/NEAT,e,10.2003,198.1524,273.0032,3.885015,0.1287108,0.75848688,38.5058,11/26.0/2024,2000,g 16.0,4.0
# From MPEC 2024-VB7
208P/McMillan,e,4.4126,36.3347,310.7189,4.038353,0.1214500,0.37379369,11.4109,11/26.0/2024,2000,g 12.5,4.0
# From MPEC 2024-TD8
209P/LINEAR,e,21.2824,62.7696,152.4893,2.958375,0.1936976,0.67401684,26.0536,11/26.0/2024,2000,g 17.0,2.0
# From MPC105242
210P/Christensen,e,10.2817,93.8248,345.9080,3.161485,0.1753345,0.83407173,296.5803,11/26.0/2024,2000,g 13.5,4.0
# From MPEC 2024-JU4
211P/Hill,e,18.9225,117.1039,4.3287,3.548799,0.1474287,0.34438815,115.4478,11/26.0/2024,2000,g 12.5,4.0
# From MPEC 2024-GJ3
212P/NEAT,e,22.1487,97.9735,14.0353,3.901574,0.1278923,0.58669623,27.4822,11/26.0/2024,2000,g 17.0,2.0
# From MPEC 2022-GA9
213P/Van Ness,e,10.3836,311.2249,5.9782,3.350351,0.1607195,0.40861415,61.0422,11/26.0/2024,2000,g 10.5,4.0
# From MPC 76570
213P-B/Van Ness,e,10.3697,5.6757,311.5336,3.350671,0.1606965,0.40879026,60.8886,11/26.0/2024,2000,g 17.0,4.0
# From MPC 76570
213P-C/Van Ness,e,10.3671,5.6556,311.5372,3.350055,0.1607408,0.40863416,61.1726,11/26.0/2024,2000,g 17.5,4.0
# From MPC 92986
214P/LINEAR,e,15.1891,348.2150,190.1265,3.617026,0.1432770,0.48605097,113.4507,11/26.0/2024,2000,g 13.0,4.0
# From MPEC 2024-F91
215P/NEAT,e,10.5765,56.6738,262.3426,4.334766,0.1092083,0.16510726,200.5765,11/26.0/2024,2000,g 11.0,4.0
# From MPEC 2024-N80
216P/LINEAR,e,9.0620,359.7932,151.7461,3.859479,0.1299903,0.44888516,42.1279,11/26.0/2024,2000,g 13.0,4.0
# From MPEC 2024-LE0
217P/LINEAR,e,12.8650,125.3725,247.0308,3.945243,0.1257748,0.68914808,337.3687,11/26.0/2024,2000,g 12.0,4.0
# From MPEC 2022-K19
218P/LINEAR,e,2.7239,174.9595,60.9517,3.068504,0.1833640,0.63058107,275.1455,11/26.0/2024,2000,g 16.0,4.0
# From MPEC 2024-VJ2
219P/LINEAR,e,11.5381,230.9538,107.7211,3.649509,0.1413684,0.35461179,40.4074,11/26.0/2024,2000,g 11.0,4.0
# From MPEC 2024-A43
220P/McNaught,e,8.1219,150.0981,180.6018,3.119588,0.1788786,0.50051867,258.9122,11/26.0/2024,2000,g 15.0,4.0
# From MPEC 2022-UY9
221P/LINEAR,e,11.3969,229.2430,39.3802,3.412097,0.1563767,0.51023360,166.3186,11/26.0/2024,2000,g 14.5,4.0
# From MPC 92277
222P/LINEAR,e,5.0962,6.7711,346.2847,2.897457,0.1998382,0.71475164,39.3889,11/26.0/2024,2000,g 20.0,4.0
# From MPEC 2023-A50
223P/Skiff,e,27.0077,346.7221,37.9684,4.158130,0.1162403,0.41641902,247.1818,11/26.0/2024,2000,g 12.0,4.0
# From MPEC 2024-L77
224P/LINEAR-NEAT,e,13.3042,40.0404,16.7878,3.446406,0.1540474,0.40576786,121.3589,11/26.0/2024,2000,g 15.5,4.0
# From MPEC 2024-F91
225P/LINEAR,e,21.3648,14.2051,3.9050,3.647366,0.1414930,0.63832426,67.3544,11/26.0/2024,2000,g 18.0,4.0
# From MPEC 2024-MB8
226P/Pigott-LINEAR-Kowalski,e,44.0453,54.0103,341.0278,3.765438,0.1348904,0.52899490,45.1717,11/26.0/2024,2000,g 12.5,4.0
# From MPEC 2024-R10
227P/Catalina-LINEAR,e,7.5082,36.8089,105.5764,3.436957,0.1546831,0.52760138,40.6395,11/26.0/2024,2000,g 16.5,2.0
# From MPEC 2022-HC2
228P/LINEAR,e,7.9143,30.9645,114.7450,4.163350,0.1160218,0.17711693,199.9751,11/26.0/2024,2000,g 14.1,4.0
# From MPEC 2024-UA9
229P/Gibbs,e,26.0970,157.8837,224.2029,3.923086,0.1268418,0.37793894,347.3488,11/26.0/2024,2000,g 13.0,4.0
# From MPEC 2024-P23
230P/LINEAR,e,15.4708,106.9329,313.5597,3.454628,0.1534978,0.54561121,150.7863,11/26.0/2024,2000,g 13.0,4.0
# From MPEC 2023-SQ0
231P/LINEAR-NEAT,e,12.2718,132.8186,43.8963,4.058043,0.1205672,0.24025226,241.5343,11/26.0/2024,2000,g 14.5,2.0
# From MPC112394
232P/Hill,e,14.6436,56.0233,53.2502,4.471072,0.1042525,0.33593349,214.6157,11/26.0/2024,2000,g 11.5,4.0
# From MPEC 2021-N06
233P/La Sagra,e,11.2888,74.9001,27.0079,3.026829,0.1871640,0.41290007,283.6107,11/26.0/2024,2000,g 15.0,4.0
# From MPEC 2024-DC6
234P/LINEAR,e,11.5349,179.5677,357.4223,3.796788,0.1332231,0.25704362,4.4515,11/26.0/2024,2000,g 12.0,4.0
# From MPC110497
235P/LINEAR,e,9.5896,203.6031,348.6771,3.494687,0.1508661,0.40588158,297.1757,11/26.0/2024,2000,g 12.0,4.0
# From MPEC 2024-P23
236P/LINEAR,e,16.3557,245.5694,119.4140,3.724608,0.1371144,0.50918255,350.4290,11/26.0/2024,2000,g 14.0,4.0
# From MPEC 2024-UQ8
237P/LINEAR,e,14.0174,245.3523,25.4332,3.514059,0.1496203,0.43351148,83.9683,11/26.0/2024,2000,g 14.5,2.0
# From MPEC 2024-L77
238P/Read,e,1.2639,51.6423,324.2697,3.166801,0.1748932,0.25089308,158.2311,11/26.0/2024,2000,g 14.5,4.0
# From MPEC 2021-F20
239P/LINEAR,e,11.3079,255.9474,220.3552,4.464688,0.1044762,0.63133327,224.2136,11/26.0/2024,2000,g 17.5,2.0
# From MPEC 2024-RQ6
240P/NEAT,e,23.5371,74.9164,352.0468,3.860856,0.1299208,0.45036328,309.4689,11/26.0/2024,2000,g 11.0,4.0
# From MPEC 2022-J42
241P/LINEAR,e,21.0947,305.4369,111.5717,4.926399,0.0901384,0.61035788,109.8535,11/26.0/2024,2000,g 13.5,4.0
# From MPEC 2024-VJ2
242P/Spahr,e,32.4320,180.3086,244.8918,5.536048,0.0756666,0.28259183,357.9473,11/26.0/2024,2000,g  8.0,4.0
# From MPEC 2022-K19
243P/NEAT,e,7.6442,87.6481,283.6882,3.827696,0.1316128,0.36045300,299.9254,11/26.0/2024,2000,g 12.5,4.0
# From MPEC 2024-L77
244P/Scotti,e,2.2582,354.0102,93.3933,4.902635,0.0907945,0.19988538,66.9674,11/26.0/2024,2000,g  9.0,4.0
# From MPEC 2022-CN4
245P/WISE,e,21.1729,316.8880,316.5249,4.051383,0.1208646,0.45569694,300.7418,11/26.0/2024,2000,g 14.0,4.0
# From MPEC 2024-L77
246P/NEAT,e,17.7420,74.2346,185.6243,4.227630,0.1133858,0.24055228,161.1129,11/26.0/2024,2000,g 10.5,4.0
# From MPEC 2021-F20
247P/LINEAR,e,13.6584,54.0007,47.4695,3.964868,0.1248421,0.62550781,272.7408,11/26.0/2024,2000,g 16.5,2.0
# From MPC 75730
248P/Gibbs,e,6.3516,207.8097,209.9633,5.983150,0.0673456,0.63932320,340.2748,11/26.0/2024,2000,g 14.0,4.0
# From MPEC 2022-YN2
249P/LINEAR,e,8.3854,239.0431,65.7442,2.764988,0.2143701,0.81935063,345.4884,11/26.0/2024,2000,g 15.5,4.0
# From MPEC 2024-TD8
250P/Larson,e,13.1535,73.3055,45.7455,3.779466,0.1341400,0.39885498,336.9500,11/26.0/2024,2000,g 14.5,4.0
# From MPEC 2024-TD8
251P/LINEAR,e,23.3871,219.3395,31.2043,3.512593,0.1497140,0.50429293,42.9377,11/26.0/2024,2000,g 16.5,2.0
# From MPEC 2021-S45
252P/LINEAR,e,10.4179,190.9060,343.3768,3.051254,0.1849211,0.67091270,228.3590,11/26.0/2024,2000,g 17.5,4.0
# From MPEC 2024-VJ2
253P/PANSTARRS,e,4.9440,146.8635,230.8213,3.462749,0.1529581,0.41468789,5.5080,11/26.0/2024,2000,g 14.5,4.0
# From MPEC 2024-EF7
254P/McNaught,e,32.5425,129.1832,219.7459,4.619338,0.0992738,0.31874122,150.7627,11/26.0/2024,2000,g 11.0,4.0
# From NK 2214
255P/Levy,e,13.4044,275.6365,186.0373,2.942363,0.1952809,0.71199688,158.2038,11/26.0/2024,2000,g  9.0,4.0
# From MPEC 2024-L77
256P/LINEAR,e,27.6244,81.3293,124.0966,4.636107,0.0987356,0.41788066,61.7157,11/26.0/2024,2000,g 14.0,2.0
# From MPEC 2023-A50
